#aV2023  6 16  0  0  0.00000000     288 DD+AD WGS84 FIT  NGA
## 2266 432000.00000000   300.00000000 60111 0.0000000000000
+   32     1  2  3  4  5  6  7  8  9 10 11 12 13 14 15 16 17
+         18 19 20 21 22 23 24 25 26 27 28 29 30 31 32  0  0
+          0  0  0  0  0  0  0  0  0  0  0  0  0  0  0  0  0
+          0  0  0  0  0  0  0  0  0  0  0  0  0  0  0  0  0
+          0  0  0  0  0  0  0  0  0  0  0  0  0  0  0  0  0
++         2  2  2  2  2  2  2  2  2  2  2  2  2  2  2  2  2
++         2  2  2  2  2  2  2  2  2  2  2  2  2  2  2  0  0
++         0  0  0  0  0  0  0  0  0  0  0  0  0  0  0  0  0
++         0  0  0  0  0  0  0  0  0  0  0  0  0  0  0  0  0
++         0  0  0  0  0  0  0  0  0  0  0  0  0  0  0  0  0
%c cc cc ccc ccc cccc cccc cccc cccc ccccc ccccc ccccc ccccc
%c cc cc ccc ccc cccc cccc cccc cccc ccccc ccccc ccccc ccccc
%f  0.0000000  0.000000000  0.00000000000  0.000000000000000
%f  0.0000000  0.000000000  0.00000000000  0.000000000000000
%i    0    0    0    0      0      0      0      0         0
%i    0    0    0    0      0      0      0      0         0
/*      NGA, ST. LOUIS,MO.                                  
/*   EPHEMERIS COMPUTED FROM 2 DAYS OF DATA                 
/*   EPOCHA v8 SMOOTHER                                     
/*   G2139 IERS2010 SATIGS SATAPC                           
*  2023  6 16 19 55  0.00000000
P  1   5148.293686  14025.896007 -22323.568179    177.990205                    
V  1 -27075.841117   4286.904212  -3268.711822     -0.023202                    
P  2  -1398.734243  15383.589501 -21082.272098   -585.158957                    
V  2 -27227.347296   6428.504319   6485.333163      0.035993                    
P  3  11622.902808  22532.208125  -8256.678693   -268.028883                    
V  3  -8055.833145  -6614.368407 -29767.165523      0.136733                    
P  4   2292.101248  21874.242651  14819.694694     70.134483                    
V  4  -8998.030634  16683.339870 -23363.329438      0.103593                    
P  5   2028.333969 -17679.994042  19501.376890   -131.362410                    
V  5  17965.621758  17671.470601  14137.230586     -0.014601                    
P  6  26055.687746  -5254.265243   1398.270933    584.668500                    
V  6   1970.025866   1527.691219 -32239.726192     -0.020468                    
P  7  20281.999743   8049.031828  15933.645250    150.527237                    
V  7 -18653.553345   4984.765018  21387.036697     -0.101378                    
P  8  -5481.900117  25462.084166  -4056.436601   -127.716793                    
V  8  -4628.618185   3855.357388  31394.971311     -0.018151                    
P  9  10305.798271  13828.207036  20114.432048   -134.210936                    
V  9  -9338.071625  24004.255581 -11716.502753      0.089014                    
P 10 -19706.394661  -5908.942782 -16795.633311    -41.434396                    
V 10 -12840.461282 -17294.741393  20627.165893     -0.015602                    
P 11  17979.846332 -12627.380520  14903.087188   -238.186890                    
V 11  19016.788597   -363.109542 -23301.490936     -0.151176                    
P 12  -7510.702640 -23194.032364 -10910.932483   -389.404308                    
V 12   9644.936420   9565.605993 -27601.668300     -0.046874                    
P 13  13339.335734 -22762.411586   1635.788499    534.894263                    
V 13   1327.181477   3311.761819  31997.774156      0.051411                    
P 14  20350.934891   8784.763080 -14732.006364     92.770115                    
V 14   9807.752606  16078.642115  22957.217247      0.123779                    
P 15   1722.461029 -25977.752394  -4960.223793     49.470794                    
V 15   4893.968355  -4898.926709  30427.945172      0.035121                    
P 16  -7309.514191  14478.590669  20634.874884   -490.789877                    
V 16 -16324.574562 -21525.597993   9624.952109      0.038905                    
P 17  16376.021433  -3074.241513 -20284.461972    718.570799                    
V 17  -9837.379824  24793.934169 -11356.324534      0.012497                    
P 18 -22238.596403  -5778.356583  13459.401444   -310.183600                    
V 18  16525.203923  -4405.408456  25252.011999     -0.149612                    
P 19  17812.947929 -10268.280646 -16856.901425    331.476829                    
V 19  -7756.426954  19673.121675 -20753.502234      0.051263                    
P 20  10230.881449 -11621.834970  21611.172160    427.650644                    
V 20  20802.570922  17845.595206   -437.325587     -0.020659                    
P 21  -4167.963907  15734.575034 -20252.964071    153.046863                    
V 21 -26621.586423   5638.877694  10452.619406     -0.003059                    
P 22 -17188.389905  14178.724330 -13881.555301    498.890861                    
V 22   5588.056296 -17750.633656 -24418.033187      0.059422                    
P 23 -20336.089959 -15714.409180  -7017.898341     33.834918                    
V 23  -4293.544174  -8044.161400  30284.668711      0.036671                    
P 24  -1036.621060 -16128.044149 -21400.088336   -227.106216                    
V 24  25743.138857  -6285.770775   3972.389456     -0.130323                    
P 25 -17172.381837 -20452.523787   -449.940290    450.232736                    
V 25   2271.508795  -1697.102401 -31409.494549      0.025137                    
P 26 -16196.827439   4941.152151  20413.935595    238.886865                    
V 26 -17528.221731 -19510.816354  -8791.651146     -0.008568                    
P 27 -12777.100743  21981.865054   6652.047385     15.180318                    
V 27    299.545226  -9317.362270  30626.673583     -0.075999                    
P 28 -26075.496116   4988.903644   -750.801255     83.347808                    
V 28    324.600671  -2946.940029 -31744.303287      0.007091                    
P 29  -7227.548911 -16244.924840  19645.973949   -602.997314                    
V 29  11337.674335 -22366.041391 -14374.643274     -0.011954                    
P 30  25751.908796    994.343464   7091.209991   -510.597218                    
V 30  -8173.801367   4599.946840  29258.895605      0.024861                    
P 31 -22100.975741  10809.204249  10363.086404   -218.295289                    
V 31 -13493.718438   -353.903298 -27518.381146     -0.007321                    
P 32 -16657.943679   6004.162376 -19554.256364   -501.658034                    
V 32   7153.898333 -24294.379463 -13621.533293     -0.083967                    
EOF
